NORAD_CAT_ID,OBJECT_NAME,OBJECT_TYPE,EPOCH,MEAN_MOTION,ECCENTRICITY,INCLINATION,RA_OF_ASC_NODE,ARG_OF_PERICENTER,MEAN_ANOMALY,BSTAR,MEAN_MOTION_DOT,MEAN_MOTION_DDOT,TLE_LINE0,TLE_LINE1,TLE_LINE2,SEMIMAJOR_AXIS,PERIOD,APOGEE,PERIGEE,DECAYED
55310.0,STARLINK-5309,PAYLOAD,2023-09-11 16:58:51,14.98331783,0.0003152,69.9993,138.9278,270.9318,89.148,6.1253e-05,6.38e-06,0.0,0 STARLINK-5309,1 55310U 23010AT  23254.70753513  .00000638  00000-0  61253-4 0  9995,2 55310  69.9993 138.9278 0003152 270.9318  89.1480 14.98331783 37142,6950.187,96.107,574.243,569.862,0.0
55310.0,STARLINK-5309,PAYLOAD,2023-09-12 02:35:38,14.98339211,0.0003045,69.9992,137.9176,270.704,89.377,7.1156e-05,7.56e-06,0.0,0 STARLINK-5309,1 55310U 23010AT  23255.10808823  .00000756  00000-0  71156-4 0  9999,2 55310  69.9992 137.9176 0003045 270.7040  89.3770 14.98339211 37203,6950.164,96.106,574.146,569.913,0.0
55310.0,STARLINK-5309,PAYLOAD,2023-09-12 20:13:07,14.983554,0.0002415,70.0002,136.0683,263.4206,96.6678,-0.00038224,-4.654e-05,0.0,0 STARLINK-5309,1 55310U 23010AT  23255.84245147 -.00004654  00000-0 -38224-3 0  9995,2 55310  70.0002 136.0683 0002415 263.4206  96.6678 14.98355400 37637,6950.114,96.105,573.658,570.301,0.0
55310.0,STARLINK-5309,PAYLOAD,2023-09-13 01:01:31,14.98352287,0.0002435,69.9997,135.5623,258.6782,101.4104,-0.00029067,-3.561e-05,0.0,0 STARLINK-5309,1 55310U 23010AT  23256.04272785 -.00003561  00000-0 -29067-3 0  9997,2 55310  69.9997 135.5623 0002435 258.6782 101.4104 14.98352287 37664,6950.124,96.106,573.681,570.297,0.0
55310.0,STARLINK-5309,PAYLOAD,2023-09-13 18:39:00,14.98334481,0.0002735,69.9997,133.7116,254.0236,106.0622,-2.6153e-05,-4.05e-06,0.0,0 STARLINK-5309,1 55310U 23010AT  23256.77708995 -.00000405  00000-0 -26153-4 0  9992,2 55310  69.9997 133.7116 0002735 254.0236 106.0622 14.98334481 37457,6950.179,96.107,573.945,570.143,0.0
55310.0,STARLINK-5309,PAYLOAD,2023-09-13 21:51:16,14.98341018,0.0002838,69.9997,133.3735,254.6484,105.4361,-0.00013819,-1.742e-05,0.0,0 STARLINK-5309,1 55310U 23010AT  23256.91060837 -.00001742  00000-0 -13819-3 0  9993,2 55310  69.9997 133.3735 0002838 254.6484 105.4361 14.98341018 37799,6950.159,96.106,573.996,570.051,0.0
55310.0,STARLINK-5309,PAYLOAD,2023-09-14 02:39:40,14.98339712,0.0002925,69.9995,132.8666,270.2456,89.8368,-0.00012671,-1.605e-05,0.0,0 STARLINK-5309,1 55310U 23010AT  23257.11088831 -.00001605  00000-0 -12671-3 0  9993,2 55310  69.9995 132.8666 0002925 270.2456  89.8368 14.98339712 37828,6950.163,96.106,574.061,569.995,0.0
55310.0,STARLINK-5309,PAYLOAD,2023-09-14 18:41:02,14.9832212,0.0002594,69.9998,131.1858,252.9851,107.1024,-3.3511e-05,-4.93e-06,0.0,0 STARLINK-5309,1 55310U 23010AT  23257.77849731 -.00000493  00000-0 -33511-4 0  9990,2 55310  69.9998 131.1858 0002594 252.9851 107.1024 14.98322120 37608,6950.217,96.108,573.885,570.279,0.0
55310.0,STARLINK-5309,PAYLOAD,2023-09-14 21:53:18,14.98319884,0.0002959,69.9995,130.8487,273.9912,86.0909,-5.8758e-05,-7.94e-06,0.0,0 STARLINK-5309,1 55310U 23010AT  23257.91202083 -.00000794  00000-0 -58758-4 0  9993,2 55310  69.9995 130.8487 0002959 273.9912  86.0909 14.98319884 37942,6950.224,96.108,574.146,570.033,0.0
55310.0,STARLINK-5309,PAYLOAD,2023-09-15 01:05:37,14.98286259,0.0002984,69.9993,130.5111,260.1416,99.9406,-0.000426,-5.166e-05,0.0,0 STARLINK-5309,1 55310U 23010AT  23258.04556834 -.00005166  00000-0 -42600-3 0  9990,2 55310  69.9993 130.5111 0002984 260.1416  99.9406 14.98286259 37647,6950.328,96.11,574.267,570.119,0.0
55310.0,STARLINK-5309,PAYLOAD,2023-09-15 17:06:54,14.98326617,0.0002693,69.9987,128.8275,261.9133,98.172,2.1883e-05,1.68e-06,0.0,0 STARLINK-5309,1 55310U 23010AT  23258.71313483  .00000168  00000-0  21883-4 0  9991,2 55310  69.9987 128.8275 0002693 261.9133  98.1720 14.98326617 37747,6950.203,96.107,573.94,570.197,0.0
55310.0,STARLINK-5309,PAYLOAD,2023-09-16 01:07:34,14.98332281,0.0002737,69.9988,127.9861,262.7467,97.3381,7.7263e-05,8.29e-06,0.0,0 STARLINK-5309,1 55310U 23010AT  23259.04693010  .00000829  00000-0  77263-4 0  9992,2 55310  69.9988 127.9861 0002737 262.7467  97.3381 14.98332281 37790,6950.186,96.107,573.953,570.149,0.0
55310.0,STARLINK-5309,PAYLOAD,2023-09-16 17:08:56,14.98324415,0.0003036,69.9983,126.3023,273.3557,86.7255,2.9112e-05,2.54e-06,0.0,0 STARLINK-5309,1 55310U 23010AT  23259.71453719  .00000254  00000-0  29112-4 0  9998,2 55310  69.9983 126.3023 0003036 273.3557  86.7255 14.98324415 37892,6950.21,96.107,574.185,569.965,0.0
55310.0,STARLINK-5309,PAYLOAD,2023-09-17 01:09:36,14.98320895,0.0002835,69.9985,125.4606,261.2609,98.8229,0.00019324,2.213e-05,0.0,0 STARLINK-5309,1 55310U 23010AT  23260.04833524  .00002213  00000-0  19324-3 0  9992,2 55310  69.9985 125.4606 0002835 261.2609  98.8229 14.98320895 38266,6950.221,96.108,574.056,570.116,0.0
55310.0,STARLINK-5309,PAYLOAD,2023-09-17 17:10:57,14.98320991,0.0002571,69.9995,123.7782,264.8207,95.2658,-9.8732e-05,-1.27e-05,0.0,0 STARLINK-5309,1 55310U 23010AT  23260.71594576 -.00001270  00000-0 -98732-4 0  9992,2 55310  69.9995 123.7782 0002571 264.8207  95.2658 14.98320991 38043,6950.221,96.108,573.873,570.299,0.0
55310.0,STARLINK-5309,PAYLOAD,2023-09-18 01:11:38,14.9832195,0.0002426,69.9999,122.9377,256.9309,103.1579,-9.0096e-05,-1.167e-05,0.0,0 STARLINK-5309,1 55310U 23010AT  23261.04974642 -.00001167  00000-0 -90096-4 0  9995,2 55310  69.9999 122.9377 0002426 256.9309 103.1579 14.98321950 38410,6950.218,96.108,573.769,570.397,0.0
55310.0,STARLINK-5309,PAYLOAD,2023-09-18 17:12:58,14.9832757,0.0003036,69.9985,121.2513,275.999,84.0823,6.7435e-05,7.12e-06,0.0,0 STARLINK-5309,1 55310U 23010AT  23261.71733842  .00000712  00000-0  67435-4 0  9998,2 55310  69.9985 121.2513 0003036 275.9990  84.0823 14.98327570 38192,6950.2,96.107,574.175,569.955,0.0
55310.0,STARLINK-5309,PAYLOAD,2023-09-18 20:25:14,14.98329295,0.0002662,69.9993,120.9155,271.9288,88.1566,8.0813e-05,8.71e-06,0.0,0 STARLINK-5309,1 55310U 23010AT  23261.85085726  .00000871  00000-0  80813-4 0  9995,2 55310  69.9993 120.9155 0002662 271.9288  88.1566 14.98329295 38532,6950.195,96.107,573.91,570.21,0.0
55310.0,STARLINK-5309,PAYLOAD,2023-09-19 18:51:06,14.98335292,0.000271,69.9994,118.5604,267.6051,92.4798,0.00016167,1.837e-05,0.0,0 STARLINK-5309,1 55310U 23010AT  23262.78548832  .00001837  00000-0  16167-3 0  9993,2 55310  69.9994 118.5604 0002710 267.6051  92.4798 14.98335292 38358,6950.177,96.107,573.925,570.158,0.0
55310.0,STARLINK-5309,PAYLOAD,2023-09-19 23:39:30,14.98333656,0.0001983,70.0008,118.0567,263.0749,97.0184,0.00017313,1.974e-05,0.0,0 STARLINK-5309,1 55310U 23010AT  23262.98576997  .00001974  00000-0  17313-3 0  9994,2 55310  70.0008 118.0567 0001983 263.0749  97.0184 14.98333656 38706,6950.182,96.107,573.425,570.668,0.0
55310.0,STARLINK-5309,PAYLOAD,2023-09-20 18:53:09,14.98311854,0.0002142,70.0017,116.0382,235.2024,124.8934,-0.00023242,-2.863e-05,0.0,0 STARLINK-5309,1 55310U 23010AT  23263.78691112 -.00002863  00000-0 -23242-3 0  9998,2 55310  70.0017 116.0382 0002142 235.2024 124.8934 14.98311854 38500,6950.249,96.108,573.603,570.625,0.0
55310.0,STARLINK-5309,PAYLOAD,2023-09-20 22:05:25,14.98310703,0.0002116,70.0024,115.7021,226.5809,133.5174,-0.00016322,-2.039e-05,0.0,0 STARLINK-5309,1 55310U 23010AT  23263.92043097 -.00002039  00000-0 -16322-3 0  9993,2 55310  70.0024 115.7021 0002116 226.5809 133.5174 14.98310703 38841,6950.253,96.108,573.588,570.647,0.0
55310.0,STARLINK-5309,PAYLOAD,2023-09-20 23:41:33,14.98315911,0.0001384,70.0017,115.5321,291.2032,68.8979,-0.00014826,-1.86e-05,0.0,0 STARLINK-5309,1 55310U 23010AT  23263.98719271 -.00001860  00000-0 -14826-3 0  9991,2 55310  70.0017 115.5321 0001384 291.2032  68.8979 14.98315911 38857,6950.236,96.108,573.063,571.14,0.0
55310.0,STARLINK-5309,PAYLOAD,2023-09-21 18:55:09,14.98324671,0.000245,70.0004,113.5116,259.9748,100.1134,-0.00011129,-1.42e-05,0.0,0 STARLINK-5309,1 55310U 23010AT  23264.78830269 -.00001420  00000-0 -11129-3 0  9996,2 55310  70.0004 113.5116 0002450 259.9748 100.1134 14.98324671 38657,6950.209,96.107,573.777,570.372,0.0
55310.0,STARLINK-5309,PAYLOAD,2023-09-21 20:31:17,14.98328834,0.0002484,70.0001,113.3424,265.8539,94.2336,-7.0133e-05,-9.3e-06,0.0,0 STARLINK-5309,1 55310U 23010AT  23264.85505842 -.00000930  00000-0 -70133-4 0  9996,2 55310  70.0001 113.3424 0002484 265.8539  94.2336 14.98328834 38983,6950.196,96.107,573.788,570.335,0.0
55310.0,STARLINK-5309,PAYLOAD,2023-09-21 23:43:33,14.98328562,0.0002636,69.9996,113.005,268.8147,91.271,-7.9661e-05,-1.043e-05,0.0,0 STARLINK-5309,1 55310U 23010AT  23264.98857864 -.00001043  00000-0 -79661-4 0  9995,2 55310  69.9996 113.0050 0002636 268.8147  91.2710 14.98328562 38680,6950.197,96.107,573.894,570.23,0.0
55310.0,STARLINK-5309,PAYLOAD,2023-09-22 20:33:17,14.98333889,0.0003057,69.9987,110.8155,275.7289,84.3521,6.5093e-05,6.84e-06,0.0,0 STARLINK-5309,1 55310U 23010AT  23265.85645288  .00000684  00000-0  65093-4 0  9999,2 55310  69.9987 110.8155 0003057 275.7289  84.3521 14.98333889 39135,6950.181,96.107,574.171,569.921,0.0
55310.0,STARLINK-5309,PAYLOAD,2023-09-22 23:45:33,14.98329081,0.0003041,69.9988,110.4788,276.9423,83.139,0.00021076,2.423e-05,0.0,0 STARLINK-5309,1 55310U 23010AT  23265.98997200  .00002423  00000-0  21076-3 0  9992,2 55310  69.9988 110.4788 0003041 276.9423  83.1390 14.98329081 38836,6950.196,96.107,574.174,569.947,0.0
55310.0,STARLINK-5309,PAYLOAD,2023-09-23 23:47:34,14.98333877,0.0002913,69.9989,107.9537,274.0231,86.0595,8.7582e-05,9.52e-06,0.0,0 STARLINK-5309,1 55310U 23010AT  23266.99137110  .00000952  00000-0  87582-4 0  9990,2 55310  69.9989 107.9537 0002913 274.0231  86.0595 14.98333877 38986,6950.181,96.107,574.07,570.021,0.0
55310.0,STARLINK-5309,PAYLOAD,2023-09-24 14:12:47,14.98333554,0.0002807,69.9991,106.4388,274.4193,85.6645,-4.0436e-05,-5.75e-06,0.0,0 STARLINK-5309,1 55310U 23010AT  23267.59221327 -.00000575  00000-0 -40436-4 0  9991,2 55310  69.9991 106.4388 0002807 274.4193  85.6645 14.98333554 39399,6950.182,96.107,573.998,570.096,0.0
